FENGYUN 1C DEB          
1 32370U 99025CZP 17345.11357268  .00003810  00000-0  18133-3 0  9994
2 32370  99.0381  96.8655 0110559   3.2128 356.9785 15.14709041243568
